[{"OBJECT_NAME":"STARLINK-31668","OBJECT_ID":"2024-076S","EPOCH":"2026-03-09T04:52:43.093920","MEAN_MOTION":15.2756978,"ECCENTRICITY":0.0001291,"INCLINATION":43.0046,"RA_OF_ASC_NODE":11.2859,"ARG_OF_PERICENTER":278.2147,"MEAN_ANOMALY":81.8559,"EPHEMERIS_TYPE":0,"CLASSIFICATION_TYPE":"U","NORAD_CAT_ID":59580,"ELEMENT_SET_NO":999,"REV_AT_EPOCH":10643,"BSTAR":-0.0001011497,"MEAN_MOTION_DOT":-3.044e-5,"MEAN_MOTION_DDOT":0},{"OBJECT_NAME":"COSMOS 2576","OBJECT_ID":"2024-092A","EPOCH":"2026-03-09T19:49:29.705664","MEAN_MOTION":15.27760963,"ECCENTRICITY":0.0005946,"INCLINATION":97.4253,"RA_OF_ASC_NODE":186.0053,"ARG_OF_PERICENTER":159.7731,"MEAN_ANOMALY":200.3745,"EPHEMERIS_TYPE":0,"CLASSIFICATION_TYPE":"U","NORAD_CAT_ID":59773,"ELEMENT_SET_NO":999,"REV_AT_EPOCH":10127,"BSTAR":0.00056283,"MEAN_MOTION_DOT":0.00015211,"MEAN_MOTION_DDOT":0}]
